2012/08/18 12:21
TAF OJAM 181100Z 1812/1918 32010KT 5000 HZ NSC 
      BECMG 1818/1820 32005KT 7000 
      TEMPO 1902/1905 VRB03KT 4000 FU FEW030 
      BECMG 1906/1908 5000 HZ 
      BECMG 1911/1913 32014KT NSC
